[{"OBJECT_NAME":"IRIDE FM5","OBJECT_ID":"2025-276AK","EPOCH":"2026-03-09T22:47:21.359328","MEAN_MOTION":15.1881147,"ECCENTRICITY":0.00041727,"INCLINATION":97.4263,"RA_OF_ASC_NODE":144.1872,"ARG_OF_PERICENTER":15.4541,"MEAN_ANOMALY":344.682,"EPHEMERIS_TYPE":0,"CLASSIFICATION_TYPE":"U","NORAD_CAT_ID":66699,"ELEMENT_SET_NO":999,"REV_AT_EPOCH":1535,"BSTAR":0.00040369446,"MEAN_MOTION_DOT":8.339e-5,"MEAN_MOTION_DDOT":0},{"OBJECT_NAME":"FLOCK 4H-21","OBJECT_ID":"2025-276BL","EPOCH":"2026-03-09T18:08:07.908576","MEAN_MOTION":15.19629565,"ECCENTRICITY":0.00010528,"INCLINATION":97.425,"RA_OF_ASC_NODE":144.1168,"ARG_OF_PERICENTER":302.6819,"MEAN_ANOMALY":57.4314,"EPHEMERIS_TYPE":0,"CLASSIFICATION_TYPE":"U","NORAD_CAT_ID":66724,"ELEMENT_SET_NO":999,"REV_AT_EPOCH":1458,"BSTAR":0.00036207016,"MEAN_MOTION_DOT":7.65e-5,"MEAN_MOTION_DDOT":0}]
